{
  "type": "FeatureCollection",
  "features": [
    {
      "type": "Feature",
      "properties": {
        "norad_id": 34121,
        "name": "COSMOS 2251 DEB",
        "group": "cosmos-2251-debris",
        "lat": 7.566137844982314,
        "lon": 102.56342311352554,
        "alt_km": 837.236709997379,
        "timestamp": "2025-12-10T20:49:52.946403+00:00",
        "meta_object_name": "COSMOS 2251 DEB",
        "meta_object_id": "1993-036KS",
        "meta_epoch": "2025-12-10T13:58:09.219360",
        "meta_mean_motion": 13.91917312,
        "meta_eccentricity": 0.02401241,
        "meta_inclination": 73.9929,
        "meta_ra_of_asc_node": 100.868,
        "meta_arg_of_pericenter": 306.7809,
        "meta_mean_anomaly": 66.62,
        "meta_ephemeris_type": 0,
        "meta_classification_type": "U",
        "meta_norad_cat_id": 34121,
        "meta_element_set_no": 999,
        "meta_rev_at_epoch": 85095,
        "meta_bstar": 0.0017290858,
        "meta_mean_motion_dot": 2.764e-05,
        "meta_mean_motion_ddot": 0,
        "tle_line1": "1 34121U 93036KS  25344.58205115  .00002764  00000+0  17291-2 0  9997",
        "tle_line2": "2 34121  73.9929 100.8680 0240124 306.7809  66.6200 13.91917312850955"
      },
      "geometry": {
        "type": "Point",
        "coordinates": [
          102.56342311352554,
          7.566137844982314
        ]
      }
    },
    {
      "type": "Feature",
      "properties": {
        "norad_id": 34122,
        "name": "COSMOS 2251 DEB",
        "group": "cosmos-2251-debris",
        "lat": 52.28026764975214,
        "lon": -79.48680326961833,
        "alt_km": 686.6755817926842,
        "timestamp": "2025-12-10T20:49:52.946413+00:00",
        "meta_object_name": "COSMOS 2251 DEB",
        "meta_object_id": "1993-036KT",
        "meta_epoch": "2025-12-10T10:41:19.364928",
        "meta_mean_motion": 14.64998703,
        "meta_eccentricity": 0.00841937,
        "meta_inclination": 74.036,
        "meta_ra_of_asc_node": 123.0481,
        "meta_arg_of_pericenter": 20.5599,
        "meta_mean_anomaly": 35.1477,
        "meta_ephemeris_type": 0,
        "meta_classification_type": "U",
        "meta_norad_cat_id": 34122,
        "meta_element_set_no": 999,
        "meta_rev_at_epoch": 88651,
        "meta_bstar": 0.0017251567,
        "meta_mean_motion_dot": 9.721e-05,
        "meta_mean_motion_ddot": 0,
        "tle_line1": "1 34122U 93036KT  25344.44536302  .00009721  00000+0  17252-2 0  9995",
        "tle_line2": "2 34122  74.0360 123.0481 0084193  20.5599  35.1477 14.64998703886514"
      },
      "geometry": {
        "type": "Point",
        "coordinates": [
          -79.48680326961833,
          52.28026764975214
        ]
      }
    },
    {
      "type": "Feature",
      "properties": {
        "norad_id": 34127,
        "name": "COSMOS 2251 DEB",
        "group": "cosmos-2251-debris",
        "lat": -71.53562315189475,
        "lon": -74.62884350458269,
        "alt_km": 713.2269476947504,
        "timestamp": "2025-12-10T20:49:52.946423+00:00",
        "meta_object_name": "COSMOS 2251 DEB",
        "meta_object_id": "1993-036KY",
        "meta_epoch": "2025-12-10T04:39:56.961792",
        "meta_mean_motion": 14.31501801,
        "meta_eccentricity": 0.01149213,
        "meta_inclination": 74.179,
        "meta_ra_of_asc_node": 48.4635,
        "meta_arg_of_pericenter": 249.1574,
        "meta_mean_anomaly": 141.1493,
        "meta_ephemeris_type": 0,
        "meta_classification_type": "U",
        "meta_norad_cat_id": 34127,
        "meta_element_set_no": 999,
        "meta_rev_at_epoch": 86735,
        "meta_bstar": 0.0025855859,
        "meta_mean_motion_dot": 7.369e-05,
        "meta_mean_motion_ddot": 0,
        "tle_line1": "1 34127U 93036KY  25344.19440928  .00007369  00000+0  25856-2 0  9995",
        "tle_line2": "2 34127  74.1790  48.4635 0114921 249.1574 141.1493 14.31501801867353"
      },
      "geometry": {
        "type": "Point",
        "coordinates": [
          -74.62884350458269,
          -71.53562315189475
        ]
      }
    },
    {
      "type": "Feature",
      "properties": {
        "norad_id": 34128,
        "name": "COSMOS 2251 DEB",
        "group": "cosmos-2251-debris",
        "lat": -2.5131987012008876,
        "lon": -60.17841670109637,
        "alt_km": 556.465472019815,
        "timestamp": "2025-12-10T20:49:52.946433+00:00",
        "meta_object_name": "COSMOS 2251 DEB",
        "meta_object_id": "1993-036KZ",
        "meta_epoch": "2025-12-10T07:00:14.385888",
        "meta_mean_motion": 15.00965109,
        "meta_eccentricity": 0.0026257,
        "meta_inclination": 73.9998,
        "meta_ra_of_asc_node": 301.718,
        "meta_arg_of_pericenter": 54.4419,
        "meta_mean_anomaly": 71.4284,
        "meta_ephemeris_type": 0,
        "meta_classification_type": "U",
        "meta_norad_cat_id": 34128,
        "meta_element_set_no": 999,
        "meta_rev_at_epoch": 89130,
        "meta_bstar": 0.0029279,
        "meta_mean_motion_dot": 0.00037786,
        "meta_mean_motion_ddot": 0,
        "tle_line1": "1 34128U 93036KZ  25344.29183317  .00037786  00000+0  29279-2 0  9992",
        "tle_line2": "2 34128  73.9998 301.7180 0026257  54.4419  71.4284 15.00965109891307"
      },
      "geometry": {
        "type": "Point",
        "coordinates": [
          -60.17841670109637,
          -2.5131987012008876
        ]
      }
    },
    {
      "type": "Feature",
      "properties": {
        "norad_id": 34129,
        "name": "COSMOS 2251 DEB",
        "group": "cosmos-2251-debris",
        "lat": 73.53166846080798,
        "lon": 58.74224399850996,
        "alt_km": 614.0073177657114,
        "timestamp": "2025-12-10T20:49:52.946443+00:00",
        "meta_object_name": "COSMOS 2251 DEB",
        "meta_object_id": "1993-036LA",
        "meta_epoch": "2025-12-10T10:40:59.717568",
        "meta_mean_motion": 14.75667081,
        "meta_eccentricity": 0.00328418,
        "meta_inclination": 74.0356,
        "meta_ra_of_asc_node": 344.016,
        "meta_arg_of_pericenter": 66.3081,
        "meta_mean_anomaly": 294.1533,
        "meta_ephemeris_type": 0,
        "meta_classification_type": "U",
        "meta_norad_cat_id": 34129,
        "meta_element_set_no": 999,
        "meta_rev_at_epoch": 61264,
        "meta_bstar": 0.0019116163,
        "meta_mean_motion_dot": 0.0001317,
        "meta_mean_motion_ddot": 0,
        "tle_line1": "1 34129U 93036LA  25344.44513562  .00013170  00000+0  19116-2 0  9999",
        "tle_line2": "2 34129  74.0356 344.0160 0032841  66.3081 294.1533 14.75667081612647"
      },
      "geometry": {
        "type": "Point",
        "coordinates": [
          58.74224399850996,
          73.53166846080798
        ]
      }
    },
    {
      "type": "Feature",
      "properties": {
        "norad_id": 34136,
        "name": "COSMOS 2251 DEB",
        "group": "cosmos-2251-debris",
        "lat": -30.345384136724363,
        "lon": -124.01898448849579,
        "alt_km": 589.6479176552375,
        "timestamp": "2025-12-10T20:49:52.946453+00:00",
        "meta_object_name": "COSMOS 2251 DEB",
        "meta_object_id": "1993-036LH",
        "meta_epoch": "2025-12-10T15:43:00.272928",
        "meta_mean_motion": 14.80057428,
        "meta_eccentricity": 0.00859704,
        "meta_inclination": 74.0207,
        "meta_ra_of_asc_node": 46.7441,
        "meta_arg_of_pericenter": 170.254,
        "meta_mean_anomaly": 345.6732,
        "meta_ephemeris_type": 0,
        "meta_classification_type": "U",
        "meta_norad_cat_id": 34136,
        "meta_element_set_no": 999,
        "meta_rev_at_epoch": 89979,
        "meta_bstar": 0.00074958436,
        "meta_mean_motion_dot": 6.017e-05,
        "meta_mean_motion_ddot": 0,
        "tle_line1": "1 34136U 93036LH  25344.65486427  .00006017  00000+0  74958-3 0  9997",
        "tle_line2": "2 34136  74.0207  46.7441 0085970 170.2540 345.6732 14.80057428899794"
      },
      "geometry": {
        "type": "Point",
        "coordinates": [
          -124.01898448849579,
          -30.345384136724363
        ]
      }
    },
    {
      "type": "Feature",
      "properties": {
        "norad_id": 34139,
        "name": "COSMOS 2251 DEB",
        "group": "cosmos-2251-debris",
        "lat": 67.60889010419365,
        "lon": -58.33836166810549,
        "alt_km": 697.1671339584236,
        "timestamp": "2025-12-10T20:49:52.946463+00:00",
        "meta_object_name": "COSMOS 2251 DEB",
        "meta_object_id": "1993-036LL",
        "meta_epoch": "2025-12-10T04:43:35.266080",
        "meta_mean_motion": 14.59005201,
        "meta_eccentricity": 0.00425472,
        "meta_inclination": 74.031,
        "meta_ra_of_asc_node": 258.9095,
        "meta_arg_of_pericenter": 330.4044,
        "meta_mean_anomaly": 180.1161,
        "meta_ephemeris_type": 0,
        "meta_classification_type": "U",
        "meta_norad_cat_id": 34139,
        "meta_element_set_no": 999,
        "meta_rev_at_epoch": 88112,
        "meta_bstar": 0.0022458073,
        "meta_mean_motion_dot": 0.00010666,
        "meta_mean_motion_ddot": 0,
        "tle_line1": "1 34139U 93036LL  25344.19693595  .00010666  00000+0  22458-2 0  9997",
        "tle_line2": "2 34139  74.0310 258.9095 0042547 330.4044 180.1161 14.59005201881120"
      },
      "geometry": {
        "type": "Point",
        "coordinates": [
          -58.33836166810549,
          67.60889010419365
        ]
      }
    }
  ]
}